BEIDOU 3 (C01)          
1 36287U 10001A   22106.89460676 -.00000275  00000+0  00000+0 0  9998
2 36287   1.9777  49.4395 0003557  13.5997 244.4465  1.00270797 44894
BEIDOU 5 (C06)          
1 36828U 10036A   22107.16799209 -.00000090  00000+0  00000+0 0  9990
2 36828  54.1901 176.7903 0027829 187.3555   9.7046  1.00263863 42960
BEIDOU 6 (C04)          
1 37210U 10057A   22107.56908366 -.00000108  00000+0  00000+0 0  9999
2 37210   0.7569  39.7775 0001987 196.0544 334.6753  1.00271309 42026
BEIDOU 7 (C07)          
1 37256U 10068A   22107.44216069 -.00000198  00000+0  00000+0 0  9999
2 37256  50.3212 290.3722 0018967 181.7061   1.1537  1.00268927 41533
BEIDOU 8 (C08)          
1 37384U 11013A   22107.17687056 -.00000189  00000+0  00000+0 0  9990
2 37384  60.2084  54.8627 0018311 194.2272 128.5821  1.00272050 40402
BEIDOU 9 (C09)          
1 37763U 11038A   22107.17046663 -.00000039  00000+0  00000+0 0  9995
2 37763  54.4725 179.2741 0095649 227.1377 313.0824  1.00291539 39382
BEIDOU 10 (C10)         
1 37948U 11073A   22107.45986745 -.00000149  00000+0  00000+0 0  9996
2 37948  50.4358 290.0066 0077598 217.2632 319.2349  1.00266572 38146
BEIDOU 11 (C05)         
1 38091U 12008A   22107.52414721  .00000062  00000+0  00000+0 0  9996
2 38091   1.4291  65.6679 0014978 323.3624  63.9950  1.00274434 37222
BEIDOU 12 (C11)         
1 38250U 12018A   22106.91994390 -.00000071  00000+0  00000+0 0  9992
2 38250  56.7099 355.5919 0021359 257.7619  97.3349  1.86234426 67936
BEIDOU 13 (C12)         
1 38251U 12018B   22106.54037598 -.00000070  00000+0  00000+0 0  9999
2 38251  56.6278 354.9338 0012253 264.2829 240.5763  1.86234271 67932
BEIDOU 15 (C14)         
1 38775U 12050B   22106.71436289  .00000074  00000+0  00000+0 0  9998
2 38775  55.3634 113.7611 0015337 318.9607 139.0656  1.86231350 65315
BEIDOU 16 (C02)         
1 38953U 12059A   22107.09861000 -.00000167  00000+0  00000+0 0  9994
2 38953   1.8365  84.4563 0013362 295.8966 304.2841  1.00267451 34783
BEIDOU 17 (C31)         
1 40549U 15019A   22107.53121188 -.00000145  00000+0  00000+0 0  9998
2 40549  51.9881 313.4607 0035797 188.0631 348.1979  1.00255702 25828
BEIDOU 18 (C57)         
1 40748U 15037A   22106.95764063 -.00000071  00000+0  00000+0 0  9997
2 40748  55.8824 353.8230 0005644  15.7273 318.3992  1.86233323 45763
BEIDOU 19 (C58)         
1 40749U 15037B   22106.86158035 -.00000071  00000+0  00000+0 0  9994
2 40749  55.8852 353.8159 0006003 343.3751  61.1351  1.86232551 45760
BEIDOU 20 (C18)         
1 40938U 15053A   22107.17508468 -.00000133  00000+0  00000+0 0  9995
2 40938  51.5978 276.5724 0044801 192.8989 253.4576  1.00260001 24083
BEIDOU IGSO-6 (C13)     
1 41434U 16021A   22107.58061096 -.00000152  00000+0  00000+0 0  9990
2 41434  58.0162  53.4670 0044818 220.4052 233.8476  1.00294584 22229
BEIDOU-2 G7 (C03)       
1 41586U 16037A   22106.81689029 -.00000349  00000+0  00000+0 0  9990
2 41586   1.8410  68.8423 0009044 358.8177 181.8575  1.00275891 21525
BEIDOU-3 M1 (C19)       
1 43001U 17069A   22106.33174260  .00000077  00000+0  00000+0 0  9990
2 43001  55.5175 113.7667 0012372 290.0419  67.6673  1.86231702 30232
BEIDOU-3 M2 (C20)       
1 43002U 17069B   22106.80327336  .00000073  00000+0  00000+0 0  9993
2 43002  55.5170 113.7869 0010399 306.9730  49.9886  1.86231433 30232
BEIDOU-3 M3 (C27)       
1 43107U 18003A   22106.83938323 -.00000072  00000+0  00000+0 0  9995
2 43107  55.3318 354.7720 0005653  45.3357 141.8845  1.86232457 29006
BEIDOU-3 M4 (C28)       
1 43108U 18003B   22106.94034204 -.00000073  00000+0  00000+0 0  9994
2 43108  55.3254 354.7576 0002463 278.2661  20.8801  1.86230928 29005
BEIDOU-3 M5 (C21)       
1 43207U 18018A   22106.40288587  .00000076  00000+0  00000+0 0  9998
2 43207  55.4767 113.8805 0007325 321.9649  38.0239  1.86231663 28381
BEIDOU-3 M6 (C22)       
1 43208U 18018B   22107.00645489  .00000071  00000+0  00000+0 0  9999
2 43208  55.4760 113.8651 0010304 298.7781  61.1546  1.86231779 28390
BEIDOU-3 M7 (C29)       
1 43245U 18029A   22106.41098948 -.00000070  00000+0  00000+0 0  9998
2 43245  55.2485 352.5596 0001452  12.1712 158.2111  1.86232573 27533
BEIDOU-3 M8 (C30)       
1 43246U 18029B   22106.81942547 -.00000071  00000+0  10000-3 0  9992
2 43246  55.2455 352.5751 0005258   2.7305 127.9690  1.86232763 27531
BEIDOU IGSO-7 (C16)     
1 43539U 18057A   22107.61333627 -.00000091  00000+0  00000+0 0  9997
2 43539  55.0724 176.2429 0047616 225.7683 136.1161  1.00276650 13906
BEIDOU-3 M9 (C23)       
1 43581U 18062A   22107.11614082  .00000012  00000+0  00000+0 0  9994
2 43581  54.2947 234.1826 0002117 285.7419 254.7392  1.86231838 25286
BEIDOU-3 M10 (C24)      
1 43582U 18062B   22106.73752972  .00000009  00000+0  00000+0 0  9999
2 43582  54.2964 234.1856 0005335  21.6756 356.6948  1.86232083 25287
BEIDOU-3 M11 (C25)      
1 43602U 18067A   22106.71027609  .00000010  00000+0  00000+0 0  9999
2 43602  54.3775 232.7954 0007190  14.2014  27.4098  1.86231670 24773
BEIDOU-3 M12 (C26)      
1 43603U 18067B   22106.83836162  .00000011  00000+0  00000+0 0  9996
2 43603  54.3759 232.7585 0004244   7.8401  30.0341  1.86231610 24798
BEIDOU-3 M13 (C32)      
1 43622U 18072A   22106.73521551  .00000073  00000+0  00000+0 0  9993
2 43622  55.4429 113.4265 0008934 286.0628  72.1142  1.86231614 24292
BEIDOU-3 M14 (C33)      
1 43623U 18072B   22106.79763133  .00000073  00000+0  00000+0 0  9994
2 43623  55.4450 113.4164 0006785 303.8902 186.3697  1.86231633 24306
BEIDOU-3 M15 (C34)      
1 43647U 18078A   22106.48799281 -.00000070  00000+0  10000-3 0  9998
2 43647  55.1430 352.7207 0007637   5.9888 172.1563  1.86233036 23801
BEIDOU-3 M16 (C35)      
1 43648U 18078B   22106.54843384 -.00000071  00000+0  00000+0 0  9996
2 43648  55.1391 352.7248 0005675  14.0409 112.5306  1.86232245 23829
BEIDOU-3 G1 (C59)       
1 43683U 18085A   22107.22782537 -.00000272  00000+0  00000+0 0  9994
2 43683   0.8468 176.8468 0002639 323.5585 287.0056  1.00273354 12784
BEIDOU-3 M17 (C36)      
1 43706U 18093A   22107.04829079  .00000012  00000+0  00000+0 0  9993
2 43706  54.3774 234.0671 0008266 275.2819  84.5930  1.86231712 23174
BEIDOU-3 M18 (C37)      
1 43707U 18093B   22106.36577435  .00000006  00000+0  00000+0 0  9997
2 43707  54.3786 234.0799 0006627 310.8388  42.5974  1.86232128 23168
BEIDOU-3 IGSO-1 (C38)   
1 44204U 19023A   22107.58221860 -.00000219  00000+0  00000+0 0  9994
2 44204  56.4740  53.6238 0019823 205.1506 275.8650  1.00276441 11102
BEIDOU-2 G8             
1 44231U 19027A   22107.54124196 -.00000242  00000+0  00000+0 0  9994
2 44231   0.7170  72.9537 0004148 138.2820 333.8430  1.00272609 10816
BEIDOU-3 IGSO-2 (C39)   
1 44337U 19035A   22107.58246396 -.00000091  00000+0  00000+0 0  9993
2 44337  55.1115 172.2670 0023092 194.8847 167.4036  1.00271647 10447
BEIDOU-3 M23 (C45)      
1 44542U 19061A   22106.44695520  .00000007  00000+0  00000+0 0  9997
2 44542  54.6036 234.2172 0007472 344.5038  15.4394  1.86231130 17439
BEIDOU-3 M24 (C46)      
1 44543U 19061B   22106.83854524  .00000010  00000+0  00000+0 0  9996
2 44543  54.6028 234.1722 0004734 342.6098 191.0995  1.86231603 17437
BEIDOU-3 IGSO-3         
1 44709U 19073A   22106.89632240 -.00000168  00000+0  00000+0 0  9993
2 44709  57.3650 297.0168 0021344 172.1062 178.1378  1.00275031  9180
BEIDOU-3 M21            
1 44793U 19078A   22106.03243563 -.00000070  00000+0  10000-3 0  9990
2 44793  54.9917 352.7664 0007561  10.7939 175.9042  1.86232170 16280
BEIDOU-3 M22            
1 44794U 19078B   22106.73454271 -.00000071  00000+0  00000+0 0  9994
2 44794  54.9656 352.7336 0005466   7.0242 201.9573  1.86232731 16298
BEIDOU-3 M19            
1 44864U 19090A   22106.72865171  .00000073  00000+0  00000+0 0  9991
2 44864  55.3774 113.6404 0018982 271.0713 128.4580  1.86231902 15889
BEIDOU-3 M20            
1 44865U 19090B   22106.66777718  .00000074  00000+0  00000+0 0  9995
2 44865  55.3796 113.6748 0017319 284.0587 164.5335  1.86231836 15853
BEIDOU-3 G2             
1 45344U 20017A   22107.45664038 -.00000140  00000+0  00000+0 0  9992
2 45344   2.1115 349.0473 0003737  86.2078  14.7292  1.00272430  8016
BEIDOU-3 G3             
1 45807U 20040A   22107.03214977 -.00000352  00000+0  00000+0 0  9994
2 45807   1.5838 301.8330 0005961 339.6792  45.6715  1.00277228  6822
